STARLINK-4462           
1 53781U 22111J   26068.87155119  .00000577  00000+0  54373-4 0  9994
2 53781  53.2171 273.3043 0001529 100.3551 259.7613 15.08834955193722
2023-069B               
1 56732U 23069B   26068.54706144  .00006772  00000+0  42420-3 0  9992
2 56732  41.0081 274.4606 0011652 279.7432  80.2064 15.09579619155167
